*******************************************************************************
 Revised: Jul 13, 2013          Jupiter Barycenter                            5
 
 Dynamical point:
 ---------------
 The location of the center-of-mass of the Jupiter system. The point about 
 which Jupiter and its satellites revolve. See 599 for Jupiter center.
*******************************************************************************
 
 
*******************************************************************************
Ephemeris / WWW_USER Fri Jun 19 18:11:01 2020 Pasadena, USA      / Horizons
*******************************************************************************
Target body name: Jupiter Barycenter (5)          {source: DE431mx}
Center body name: Solar System Barycenter (0)     {source: DE431mx}
Center-site name: BODY CENTER
*******************************************************************************
Start time      : A.D. 1969-Jun-28 00:00:00.0000 TDB
Stop  time      : A.D. 2071-May-04 00:00:00.0000 TDB
Step-size       : 7200 minutes
*******************************************************************************
Center geodetic : 0.00000000,0.00000000,0.0000000 {E-lon(deg),Lat(deg),Alt(km)}
Center cylindric: 0.00000000,0.00000000,0.0000000 {E-lon(deg),Dxy(km),Dz(km)}
Center radii    : (undefined)                                                  
Output units    : AU-D
Output type     : GEOMETRIC cartesian states
Output format   : 2 (position and velocity)
Reference frame : Ecliptic of J2000.0
*******************************************************************************
            JDTDB,            Calendar Date (TDB),        delta-T,                      X,                      Y,                      Z,                     VX,                     VY,                     VZ,
******************************************************************************************************************************************************************************************************************
$$SOE
2471110.500000000, A.D. 2053-Jul-27 00:00:00.0000,      69.183386, -4.289188392814077E+00, -3.328215751369256E+00,  1.099035991555611E-01,  4.527679465944120E-03, -5.613438038881137E-03, -7.774423693094332E-05,
2471115.500000000, A.D. 2053-Aug-01 00:00:00.0000,      69.183255, -4.266451191962338E+00, -3.356205889506540E+00,  1.095123460698342E-01,  4.567168381030202E-03, -5.582572178521043E-03, -7.875645910251745E-05,
2471120.500000000, A.D. 2053-Aug-06 00:00:00.0000,      69.183130, -4.243517035383936E+00, -3.384041023641926E+00,  1.091160399829745E-01,  4.606461468107014E-03, -5.551436610945284E-03, -7.976543021121566E-05,
2471125.500000000, A.D. 2053-Aug-11 00:00:00.0000,      69.183013, -4.220386906544237E+00, -3.411719807839417E+00,  1.087146972578789E-01,  4.645556997493100E-03, -5.520032377733452E-03, -8.077110722648896E-05,
2471130.500000000, A.D. 2053-Aug-16 00:00:00.0000,      69.182904, -4.197061797550249E+00, -3.439240901394131E+00,  1.083083344725571E-01,  4.684453242226549E-03, -5.488360529755814E-03, -8.177344713407074E-05,
2471135.500000000, A.D. 2053-Aug-21 00:00:00.0000,      69.182802, -4.173542709136832E+00, -3.466602968878862E+00,  1.078969684200414E-01,  4.723148478137360E-03, -5.456422127223594E-03, -8.277240694038608E-05,
2471140.500000000, A.D. 2053-Aug-26 00:00:00.0000,      69.182707, -4.149830650652637E+00, -3.493804680190945E+00,  1.074806161082750E-01,  4.761640983885948E-03, -5.424218239753306E-03, -8.376794367449064E-05,
2471145.500000000, A.D. 2053-Aug-31 00:00:00.0000,      69.182620, -4.125926640045870E+00, -3.520844710599432E+00,  1.070592947599985E-01,  4.799929040992603E-03, -5.391749946422873E-03, -8.476001438824908E-05,
2471150.500000000, A.D. 2053-Sep-05 00:00:00.0000,      69.182544, -4.101831703849925E+00, -3.547721740792524E+00,  1.066330218126365E-01,  4.838010933868676E-03, -5.359018335821222E-03, -8.574857615630995E-05,
2471155.500000000, A.D. 2053-Sep-10 00:00:00.0000,      69.182480, -4.077546877168840E+00, -3.574434456925235E+00,  1.062018149181838E-01,  4.875884949849332E-03, -5.326024506093727E-03, -8.673358607627064E-05,
2471160.500000000, A.D. 2053-Sep-15 00:00:00.0000,      69.182427, -4.053073203662604E+00, -3.600981550667307E+00,  1.057656919430849E-01,  4.913549379225730E-03, -5.292769564995510E-03, -8.771500127045708E-05,
2471165.500000000, A.D. 2053-Sep-20 00:00:00.0000,      69.182386, -4.028411735532297E+00, -3.627361719251397E+00,  1.053246709681100E-01,  4.951002515273043E-03, -5.259254629945639E-03, -8.869277888705228E-05,
2471170.500000000, A.D. 2053-Sep-25 00:00:00.0000,      69.182354, -4.003563533505123E+00, -3.653573665521535E+00,  1.048787702882183E-01,  4.988242654271397E-03, -5.225480828085245E-03, -8.966687610228691E-05,
2471175.500000000, A.D. 2053-Sep-30 00:00:00.0000,      69.182334, -3.978529666819333E+00, -3.679616097981888E+00,  1.044280084124155E-01,  5.025268095521604E-03, -5.191449296335871E-03, -9.063725012160230E-05,
2471180.500000000, A.D. 2053-Oct-05 00:00:00.0000,      69.182327, -3.953311213209098E+00, -3.705487730845792E+00,  1.039724040636049E-01,  5.062077141358481E-03, -5.157161181454630E-03, -9.160385818050772E-05,
2471185.500000000, A.D. 2053-Oct-10 00:00:00.0000,      69.182334, -3.927909258889307E+00, -3.731187284085069E+00,  1.035119761784356E-01,  5.098668097161948E-03, -5.122617640085456E-03, -9.256665754512911E-05,
2471190.500000000, A.D. 2053-Oct-15 00:00:00.0000,      69.182353, -3.902324898540311E+00, -3.756713483479582E+00,  1.030467439071512E-01,  5.135039271368154E-03, -5.087819838809466E-03, -9.352560551193359E-05,
2471195.500000000, A.D. 2053-Oct-20 00:00:00.0000,      69.182384, -3.876559235292616E+00, -3.782065060667022E+00,  1.025767266134374E-01,  5.171188975482501E-03, -5.052768954182783E-03, -9.448065940696712E-05,
2471200.500000000, A.D. 2053-Oct-25 00:00:00.0000,      69.182426, -3.850613380711497E+00, -3.807240753192892E+00,  1.021019438742781E-01,  5.207115524094069E-03, -5.017466172779834E-03, -9.543177658497181E-05,
2471205.500000000, A.D. 2053-Oct-30 00:00:00.0000,      69.182479, -3.824488454781533E+00, -3.832239304560655E+00,  1.016224154798153E-01,  5.242817234895810E-03, -4.981912691212515E-03, -9.637891442734013E-05,
2471210.500000000, A.D. 2053-Nov-04 00:00:00.0000,      69.182544, -3.798185585891002E+00, -3.857059464281949E+00,  1.011381614332200E-01,  5.278292428726042E-03, -4.946109716139246E-03, -9.732203034135801E-05,
2471215.500000000, A.D. 2053-Nov-09 00:00:00.0000,      69.182621, -3.771705910815994E+00, -3.881699987926836E+00,  1.006492019505596E-01,  5.313539429633173E-03, -4.910058464274675E-03, -9.826108176182256E-05,
2471220.500000000, A.D. 2053-Nov-14 00:00:00.0000,      69.182710, -3.745050574704171E+00, -3.906159637174139E+00,  1.001555574606493E-01,  5.348556564950046E-03, -4.873760162416333E-03, -9.919602615487513E-05,
2471225.500000000, A.D. 2053-Nov-19 00:00:00.0000,      69.182807, -3.718220731058231E+00, -3.930437179862023E+00,  9.965724860489068E-02,  5.383342165335752E-03, -4.837216047513350E-03, -1.001268210209630E-04,
2471230.500000000, A.D. 2053-Nov-24 00:00:00.0000,      69.182912, -3.691217541719195E+00, -3.954531390038881E+00,  9.915429623709539E-02,  5.417894564805392E-03, -4.800427366716751E-03, -1.010534238949033E-04,
2471235.500000000, A.D. 2053-Nov-29 00:00:00.0000,      69.183025, -3.664042176849565E+00, -3.978441048014452E+00,  9.864672142331744E-02,  5.452212100756208E-03, -4.763395377418570E-03, -1.019757923444074E-04,
2471240.500000000, A.D. 2053-Dec-04 00:00:00.0000,      69.183146, -3.636695814916322E+00, -4.002164940411080E+00,  9.813454544169434E-02,  5.486293114009509E-03, -4.726121347271129E-03, -1.028938839690075E-04,
2471245.500000000, A.D. 2053-Dec-09 00:00:00.0000,      69.183275, -3.609179642673663E+00, -4.025701860215059E+00,  9.761778978228500E-02,  5.520135948864912E-03, -4.688606554203984E-03, -1.038076564000345E-04,
2471250.500000000, A.D. 2053-Dec-14 00:00:00.0000,      69.183410, -3.581494855145464E+00, -4.049050606828051E+00,  9.709647614691139E-02,  5.553738953166458E-03, -4.650852286439629E-03, -1.047170673016206E-04,
2471255.500000000, A.D. 2053-Dec-19 00:00:00.0000,      69.183549, -3.553642655607364E+00, -4.072209986118619E+00,  9.657062644898841E-02,  5.587100478372000E-03, -4.612859842518688E-03, -1.056220743728715E-04,
2471260.500000000, A.D. 2053-Dec-24 00:00:00.0000,      69.183690, -3.525624255568540E+00, -4.095178810473885E+00,  9.604026281334141E-02,  5.620218879624827E-03, -4.574630531332034E-03, -1.065226353502897E-04,
2471265.500000000, A.D. 2053-Dec-29 00:00:00.0000,      69.183832, -3.497440874753087E+00, -4.117955898851384E+00,  9.550540757601654E-02,  5.653092515822262E-03, -4.536165672160136E-03, -1.074187080103252E-04,
2471270.500000000, A.D. 2054-Jan-03 00:00:00.0000,      69.183977, -3.469093741081097E+00, -4.140540076831122E+00,  9.496608328407175E-02,  5.685719749681000E-03, -4.497466594718718E-03, -1.083102501718059E-04,
2471275.500000000, A.D. 2054-Jan-08 00:00:00.0000,      69.184123, -3.440584090649398E+00, -4.162930176667872E+00,  9.442231269536022E-02,  5.718098947798512E-03, -4.458534639208826E-03, -1.091972196977930E-04,
2471280.500000000, A.D. 2054-Jan-13 00:00:00.0000,      69.184269, -3.411913167712010E+00, -4.185125037343741E+00,  9.387411877830795E-02,  5.750228480710433E-03, -4.419371156370569E-03, -1.100795744969173E-04,
2471285.500000000, A.D. 2054-Jan-18 00:00:00.0000,      69.184411, -3.383082224660315E+00, -4.207123504620997E+00,  9.332152471167954E-02,  5.782106722943168E-03, -4.379977507539500E-03, -1.109572725244164E-04,
2471290.500000000, A.D. 2054-Jan-23 00:00:00.0000,      69.184549, -3.354092522002990E+00, -4.228924431095193E+00,  9.276455388434916E-02,  5.813732053063975E-03, -4.340355064700855E-03, -1.118302717820425E-04,
